[{"OBJECT_NAME":"ONEWEB-0720","OBJECT_ID":"2023-029AR","EPOCH":"2026-03-04T06:27:13.469760","MEAN_MOTION":13.19725838,"ECCENTRICITY":0.0001677,"INCLINATION":87.9237,"RA_OF_ASC_NODE":325.8803,"ARG_OF_PERICENTER":90.6699,"MEAN_ANOMALY":269.4626,"EPHEMERIS_TYPE":0,"CLASSIFICATION_TYPE":"U","NORAD_CAT_ID":55835,"ELEMENT_SET_NO":999,"REV_AT_EPOCH":14500,"BSTAR":0.00036973,"MEAN_MOTION_DOT":1.61e-6,"MEAN_MOTION_DDOT":0},{"OBJECT_NAME":"ONEWEB-0537","OBJECT_ID":"2023-043A","EPOCH":"2026-03-04T11:17:54.400128","MEAN_MOTION":13.16593592,"ECCENTRICITY":0.0001683,"INCLINATION":87.9,"RA_OF_ASC_NODE":249.6027,"ARG_OF_PERICENTER":88.8429,"MEAN_ANOMALY":271.2894,"EPHEMERIS_TYPE":0,"CLASSIFICATION_TYPE":"U","NORAD_CAT_ID":56046,"ELEMENT_SET_NO":999,"REV_AT_EPOCH":14518,"BSTAR":-0.00072145,"MEAN_MOTION_DOT":-2.63e-6,"MEAN_MOTION_DDOT":0},{"OBJECT_NAME":"ONEWEB-0538","OBJECT_ID":"2023-043B","EPOCH":"2026-03-04T11:08:48.600960","MEAN_MOTION":13.16593535,"ECCENTRICITY":0.0001876,"INCLINATION":87.8999,"RA_OF_ASC_NODE":249.6066,"ARG_OF_PERICENTER":95.382,"MEAN_ANOMALY":264.7525,"EPHEMERIS_TYPE":0,"CLASSIFICATION_TYPE":"U","NORAD_CAT_ID":56047,"ELEMENT_SET_NO":999,"REV_AT_EPOCH":14519,"BSTAR":-0.00010464,"MEAN_MOTION_DOT":-2.7e-7,"MEAN_MOTION_DDOT":0},{"OBJECT_NAME":"ONEWEB-0546","OBJECT_ID":"2023-043C","EPOCH":"2026-03-04T10:50:34.249056","MEAN_MOTION":13.16593886,"ECCENTRICITY":0.0001874,"INCLINATION":87.9004,"RA_OF_ASC_NODE":249.6067,"ARG_OF_PERICENTER":75.6525,"MEAN_ANOMALY":284.4814,"EPHEMERIS_TYPE":0,"CLASSIFICATION_TYPE":"U","NORAD_CAT_ID":56048,"ELEMENT_SET_NO":999,"REV_AT_EPOCH":14518,"BSTAR":3.1097e-5,"MEAN_MOTION_DOT":2.5e-7,"MEAN_MOTION_DDOT":0},{"OBJECT_NAME":"ONEWEB-0547","OBJECT_ID":"2023-043D","EPOCH":"2026-03-04T11:38:30.003072","MEAN_MOTION":13.21823767,"ECCENTRICITY":0.0001688,"INCLINATION":87.9165,"RA_OF_ASC_NODE":264.8516,"ARG_OF_PERICENTER":94.3423,"MEAN_ANOMALY":265.7904,"EPHEMERIS_TYPE":0,"CLASSIFICATION_TYPE":"U","NORAD_CAT_ID":56049,"ELEMENT_SET_NO":999,"REV_AT_EPOCH":14439,"BSTAR":4.3435e-5,"MEAN_MOTION_DOT":3.1e-7,"MEAN_MOTION_DDOT":0},{"OBJECT_NAME":"ONEWEB-0548","OBJECT_ID":"2023-043E","EPOCH":"2026-03-04T11:25:54.310656","MEAN_MOTION":13.16592179,"ECCENTRICITY":0.0001114,"INCLINATION":87.8996,"RA_OF_ASC_NODE":249.6013,"ARG_OF_PERICENTER":97.3562,"MEAN_ANOMALY":262.7696,"EPHEMERIS_TYPE":0,"CLASSIFICATION_TYPE":"U","NORAD_CAT_ID":56050,"ELEMENT_SET_NO":999,"REV_AT_EPOCH":14518,"BSTAR":-4.044e-6,"MEAN_MOTION_DOT":1.1e-7,"MEAN_MOTION_DDOT":0},{"OBJECT_NAME":"ONEWEB-0549","OBJECT_ID":"2023-043F","EPOCH":"2026-03-04T02:22:50.859264","MEAN_MOTION":13.21826574,"ECCENTRICITY":0.0001815,"INCLINATION":87.9164,"RA_OF_ASC_NODE":264.941,"ARG_OF_PERICENTER":95.0181,"MEAN_ANOMALY":265.116,"EPHEMERIS_TYPE":0,"CLASSIFICATION_TYPE":"U","NORAD_CAT_ID":56051,"ELEMENT_SET_NO":999,"REV_AT_EPOCH":14434,"BSTAR":9.3342e-5,"MEAN_MOTION_DOT":5.2e-7,"MEAN_MOTION_DDOT":0},{"OBJECT_NAME":"ONEWEB-0550","OBJECT_ID":"2023-043G","EPOCH":"2026-03-04T11:08:52.246176","MEAN_MOTION":13.21824062,"ECCENTRICITY":0.0001498,"INCLINATION":87.9167,"RA_OF_ASC_NODE":264.8631,"ARG_OF_PERICENTER":89.0345,"MEAN_ANOMALY":271.096,"EPHEMERIS_TYPE":0,"CLASSIFICATION_TYPE":"U","NORAD_CAT_ID":56052,"ELEMENT_SET_NO":999,"REV_AT_EPOCH":14439,"BSTAR":-8.5384e-5,"MEAN_MOTION_DOT":-2.2e-7,"MEAN_MOTION_DDOT":0},{"OBJECT_NAME":"ONEWEB-0551","OBJECT_ID":"2023-043H","EPOCH":"2026-03-04T12:00:30.551040","MEAN_MOTION":13.15547791,"ECCENTRICITY":0.0001815,"INCLINATION":87.8943,"RA_OF_ASC_NODE":280.1326,"ARG_OF_PERICENTER":93.6718,"MEAN_ANOMALY":266.462,"EPHEMERIS_TYPE":0,"CLASSIFICATION_TYPE":"U","NORAD_CAT_ID":56053,"ELEMENT_SET_NO":999,"REV_AT_EPOCH":14263,"BSTAR":0.00041102,"MEAN_MOTION_DOT":1.68e-6,"MEAN_MOTION_DDOT":0},{"OBJECT_NAME":"ONEWEB-0552","OBJECT_ID":"2023-043J","EPOCH":"2026-03-04T11:01:47.299008","MEAN_MOTION":13.21825561,"ECCENTRICITY":0.0001561,"INCLINATION":87.9164,"RA_OF_ASC_NODE":264.8726,"ARG_OF_PERICENTER":99.1031,"MEAN_ANOMALY":261.028,"EPHEMERIS_TYPE":0,"CLASSIFICATION_TYPE":"U","NORAD_CAT_ID":56054,"ELEMENT_SET_NO":999,"REV_AT_EPOCH":14439,"BSTAR":0.00010648,"MEAN_MOTION_DOT":5.7e-7,"MEAN_MOTION_DDOT":0},{"OBJECT_NAME":"ONEWEB-0553","OBJECT_ID":"2023-043K","EPOCH":"2026-03-04T10:59:41.093664","MEAN_MOTION":13.16593399,"ECCENTRICITY":0.0001568,"INCLINATION":87.9001,"RA_OF_ASC_NODE":249.6084,"ARG_OF_PERICENTER":80.5684,"MEAN_ANOMALY":279.5624,"EPHEMERIS_TYPE":0,"CLASSIFICATION_TYPE":"U","NORAD_CAT_ID":56055,"ELEMENT_SET_NO":999,"REV_AT_EPOCH":14519,"BSTAR":-7.0606e-5,"MEAN_MOTION_DOT":-1.4e-7,"MEAN_MOTION_DDOT":0},{"OBJECT_NAME":"ONEWEB-0554","OBJECT_ID":"2023-043L","EPOCH":"2026-03-04T10:41:26.618208","MEAN_MOTION":13.16593551,"ECCENTRICITY":0.0001298,"INCLINATION":87.8998,"RA_OF_ASC_NODE":249.621,"ARG_OF_PERICENTER":91.8281,"MEAN_ANOMALY":268.2998,"EPHEMERIS_TYPE":0,"CLASSIFICATION_TYPE":"U","NORAD_CAT_ID":56056,"ELEMENT_SET_NO":999,"REV_AT_EPOCH":14517,"BSTAR":-2.3685e-5,"MEAN_MOTION_DOT":4.0e-8,"MEAN_MOTION_DDOT":0},{"OBJECT_NAME":"ONEWEB-0555","OBJECT_ID":"2023-043M","EPOCH":"2026-03-04T11:36:10.174176","MEAN_MOTION":13.1659332,"ECCENTRICITY":0.0001694,"INCLINATION":87.9,"RA_OF_ASC_NODE":249.5985,"ARG_OF_PERICENTER":74.6677,"MEAN_ANOMALY":285.4641,"EPHEMERIS_TYPE":0,"CLASSIFICATION_TYPE":"U","NORAD_CAT_ID":56057,"ELEMENT_SET_NO":999,"REV_AT_EPOCH":14518,"BSTAR":-5.4572e-6,"MEAN_MOTION_DOT":1.1e-7,"MEAN_MOTION_DDOT":0},{"OBJECT_NAME":"ONEWEB-0557","OBJECT_ID":"2023-043N","EPOCH":"2026-03-04T11:56:40.941312","MEAN_MOTION":13.16592712,"ECCENTRICITY":9.37e-5,"INCLINATION":87.9001,"RA_OF_ASC_NODE":249.6073,"ARG_OF_PERICENTER":38.9106,"MEAN_ANOMALY":321.2092,"EPHEMERIS_TYPE":0,"CLASSIFICATION_TYPE":"U","NORAD_CAT_ID":56058,"ELEMENT_SET_NO":999,"REV_AT_EPOCH":14518,"BSTAR":5.8952e-5,"MEAN_MOTION_DOT":3.5e-7,"MEAN_MOTION_DDOT":0},{"OBJECT_NAME":"ONEWEB-0558","OBJECT_ID":"2023-043P","EPOCH":"2026-03-03T23:58:17.245344","MEAN_MOTION":13.21825521,"ECCENTRICITY":0.0002075,"INCLINATION":87.9166,"RA_OF_ASC_NODE":264.9574,"ARG_OF_PERICENTER":97.9351,"MEAN_ANOMALY":262.2018,"EPHEMERIS_TYPE":0,"CLASSIFICATION_TYPE":"U","NORAD_CAT_ID":56059,"ELEMENT_SET_NO":999,"REV_AT_EPOCH":14434,"BSTAR":-2.9695e-5,"MEAN_MOTION_DOT":1.0e-8,"MEAN_MOTION_DDOT":0},{"OBJECT_NAME":"ONEWEB-0559","OBJECT_ID":"2023-043Q","EPOCH":"2026-03-04T12:24:41.605344","MEAN_MOTION":13.21827547,"ECCENTRICITY":0.0001696,"INCLINATION":87.9165,"RA_OF_ASC_NODE":264.8472,"ARG_OF_PERICENTER":99.8637,"MEAN_ANOMALY":260.2688,"EPHEMERIS_TYPE":0,"CLASSIFICATION_TYPE":"U","NORAD_CAT_ID":56060,"ELEMENT_SET_NO":999,"REV_AT_EPOCH":14442,"BSTAR":5.2689e-5,"MEAN_MOTION_DOT":3.5e-7,"MEAN_MOTION_DDOT":0},{"OBJECT_NAME":"ONEWEB-0566","OBJECT_ID":"2023-043R","EPOCH":"2026-03-04T12:15:14.582880","MEAN_MOTION":13.21826142,"ECCENTRICITY":0.0001834,"INCLINATION":87.9165,"RA_OF_ASC_NODE":264.8478,"ARG_OF_PERICENTER":100.2899,"MEAN_ANOMALY":259.8442,"EPHEMERIS_TYPE":0,"CLASSIFICATION_TYPE":"U","NORAD_CAT_ID":56061,"ELEMENT_SET_NO":999,"REV_AT_EPOCH":14440,"BSTAR":0.0002012,"MEAN_MOTION_DOT":9.6e-7,"MEAN_MOTION_DDOT":0}]
