ONEWEB-0720             
1 55835U 23029AR  26063.26890590  .00000161  00000+0  36973-3 0  9996
2 55835  87.9237 325.8803 0001677  90.6699 269.4626 13.19725838145005
ONEWEB-0537             
1 56046U 23043A   26063.47076852 -.00000263  00000+0 -72145-3 0  9993
2 56046  87.9000 249.6027 0001683  88.8429 271.2894 13.16593592145180
ONEWEB-0538             
1 56047U 23043B   26063.46445140 -.00000027  00000+0 -10464-3 0  9997
2 56047  87.8999 249.6066 0001876  95.3820 264.7525 13.16593535145198
ONEWEB-0546             
1 56048U 23043C   26063.45178529  .00000025  00000+0  31097-4 0  9993
2 56048  87.9004 249.6067 0001874  75.6525 284.4814 13.16593886145187
ONEWEB-0547             
1 56049U 23043D   26063.48506948  .00000031  00000+0  43435-4 0  9993
2 56049  87.9165 264.8516 0001688  94.3423 265.7904 13.21823767144396
ONEWEB-0548             
1 56050U 23043E   26063.47632304  .00000011  00000+0 -40440-5 0  9993
2 56050  87.8996 249.6013 0001114  97.3562 262.7696 13.16592179145180
ONEWEB-0549             
1 56051U 23043F   26063.09919976  .00000052  00000+0  93342-4 0  9997
2 56051  87.9164 264.9410 0001815  95.0181 265.1160 13.21826574144345
ONEWEB-0550             
1 56052U 23043G   26063.46449359 -.00000022  00000+0 -85384-4 0  9998
2 56052  87.9167 264.8631 0001498  89.0345 271.0960 13.21824062144394
ONEWEB-0551             
1 56053U 23043H   26063.50035360  .00000168  00000+0  41102-3 0  9995
2 56053  87.8943 280.1326 0001815  93.6718 266.4620 13.15547791142636
ONEWEB-0552             
1 56054U 23043J   26063.45957522  .00000057  00000+0  10648-3 0  9991
2 56054  87.9164 264.8726 0001561  99.1031 261.0280 13.21825561144392
ONEWEB-0553             
1 56055U 23043K   26063.45811451 -.00000014  00000+0 -70606-4 0  9998
2 56055  87.9001 249.6084 0001568  80.5684 279.5624 13.16593399145196
ONEWEB-0554             
1 56056U 23043L   26063.44544697  .00000004  00000+0 -23685-4 0  9996
2 56056  87.8998 249.6210 0001298  91.8281 268.2998 13.16593551145177
ONEWEB-0555             
1 56057U 23043M   26063.48345109  .00000011  00000+0 -54572-5 0  9996
2 56057  87.9000 249.5985 0001694  74.6677 285.4641 13.16593320145180
ONEWEB-0557             
1 56058U 23043N   26063.49769608  .00000035  00000+0  58952-4 0  9992
2 56058  87.9001 249.6073 0000937  38.9106 321.2092 13.16592712145183
ONEWEB-0558             
1 56059U 23043P   26062.99881071  .00000001  00000+0 -29695-4 0  9992
2 56059  87.9166 264.9574 0002075  97.9351 262.2018 13.21825521144346
ONEWEB-0559             
1 56060U 23043Q   26063.51714821  .00000035  00000+0  52689-4 0  9996
2 56060  87.9165 264.8472 0001696  99.8637 260.2688 13.21827547144429
ONEWEB-0566             
1 56061U 23043R   26063.51058545  .00000096  00000+0  20120-3 0  9992
2 56061  87.9165 264.8478 0001834 100.2899 259.8442 13.21826142144407
